{"type":"Feature","properties":{"name":"ЦКАД","ref":"A-113"},"geometry":{"type":"MultiLineString","coordinates":[[[37.433903,55.360935],[37.433016,55.361605],[37.429194,55.364489],[37.42432,55.368276],[37.421293,55.370762],[37.418286,55.373008],[37.415818,55.374538],[37.413747,55.375743],[37.41044,55.377432],[37.40729,55.378887]],[[37.407356,55.378712],[37.41033,55.377346],[37.413631,55.375631],[37.415629,55.374469],[37.418158,55.372901],[37.421059,55.370734],[37.424119,55.36822],[37.429012,55.364419],[37.433729,55.36086]],[[37.45307,55.347993],[37.455117,55.347124],[37.456975,55.3464],[37.458635,55.345818],[37.460559,55.345192],[37.462085,55.344761],[37.463324,55.344431],[37.465281,55.343944],[37.46688,55.343606],[37.469195,55.343171],[37.471503,55.342803],[37.471992,55.342725],[37.474876,55.342396],[37.477307,55.342298],[37.477767,55.342274],[37.48141,55.342034],[37.486171,55.341703],[37.493911,55.341255]],[[37.493872,55.341378],[37.489432,55.341637],[37.486951,55.34179],[37.481391,55.342177],[37.4771,55.342478],[37.475027,55.34261],[37.471973,55.342853],[37.469194,55.343295],[37.466909,55.343725],[37.465321,55.344061],[37.463406,55.344537],[37.462172,55.344866],[37.460563,55.345321],[37.458733,55.345916],[37.457079,55.346496],[37.455228,55.347216],[37.453249,55.348058]],[[37.452907,55.34822],[37.450992,55.349103],[37.449292,55.350033],[37.44625,55.351921],[37.442111,55.354925],[37.434319,55.360626]],[[37.434145,55.360551],[37.441996,55.354843],[37.446061,55.351893],[37.449139,55.349982],[37.450899,55.349019],[37.452727,55.348156]],[[37.563811,55.327974],[37.565067,55.327754],[37.566029,55.327608],[37.568175,55.327337],[37.570115,55.327137],[37.57225,55.327001],[37.573568,55.326948],[37.57518,55.326911],[37.576852,55.32692],[37.578928,55.326972],[37.580844,55.327112],[37.582158,55.327219],[37.584556,55.327478],[37.586428,55.327735],[37.588043,55.328003],[37.590011,55.3284],[37.594244,55.329462],[37.597634,55.330191],[37.601089,55.330771],[37.603076,55.331047]],[[37.602843,55.331163],[37.601062,55.33089],[37.597564,55.330298],[37.594668,55.329683],[37.594212,55.329581],[37.589958,55.328516],[37.587976,55.328105],[37.586376,55.327837],[37.584465,55.327576],[37.582174,55.327323],[37.580833,55.327216],[37.579667,55.327139],[37.578929,55.327097],[37.576804,55.32703],[37.575166,55.327029],[37.572284,55.327122],[37.570166,55.327269],[37.568213,55.327457],[37.566069,55.327733],[37.565132,55.327875],[37.564208,55.328025],[37.563879,55.328086]],[[37.545215,55.332056],[37.546194,55.331828],[37.556787,55.329501],[37.559593,55.32886],[37.562207,55.328289]],[[37.562275,55.3284],[37.559704,55.328969],[37.556891,55.329602],[37.549425,55.331242],[37.546297,55.331933],[37.54555,55.332113]],[[37.530724,55.335996],[37.531923,55.335774],[37.532668,55.335618],[37.534527,55.335186],[37.535689,55.33489],[37.536791,55.334585],[37.537491,55.334378],[37.538454,55.334086],[37.540058,55.33356],[37.540881,55.3333],[37.541697,55.333064],[37.542716,55.332763],[37.542905,55.332704]],[[37.673555,55.332566],[37.673064,55.332564],[37.665894,55.332551],[37.6573,55.332499],[37.650354,55.33246],[37.641536,55.332335],[37.634598,55.332225],[37.625777,55.332104],[37.620092,55.332024]],[[37.520497,55.338208],[37.520376,55.338231],[37.518981,55.338522],[37.518144,55.338672],[37.517517,55.338779],[37.514501,55.339306],[37.512651,55.339584],[37.510761,55.339855]],[[37.494301,55.341227],[37.498556,55.340933],[37.503939,55.340533],[37.505176,55.340408],[37.506361,55.34028],[37.508158,55.340074]],[[37.543573,55.332656],[37.541781,55.333183],[37.540986,55.333413],[37.540157,55.333671],[37.538564,55.334192],[37.537712,55.334451],[37.536867,55.334699]],[[37.401695,55.380851],[37.403114,55.380374],[37.404426,55.37991],[37.405738,55.379402],[37.407356,55.378712]],[[37.40729,55.378887],[37.405754,55.379525],[37.404526,55.38],[37.403222,55.380462],[37.401793,55.380942]],[[37.512307,55.339513],[37.512622,55.339468],[37.514562,55.33917],[37.517214,55.338712],[37.518085,55.338561]],[[37.620099,55.331883],[37.63786,55.332147]],[[37.527885,55.33672],[37.526673,55.336952],[37.523733,55.337559]],[[37.53356,55.335542],[37.53275,55.335728],[37.531975,55.335883],[37.529625,55.336362]],[[37.617821,55.331988],[37.612512,55.331843],[37.610033,55.331777],[37.60972,55.33176],[37.607992,55.331661]],[[37.536867,55.334699],[37.535297,55.335127],[37.534602,55.335302],[37.53356,55.335542]],[[37.603076,55.331047],[37.60475,55.331252],[37.606613,55.331425],[37.608386,55.331553]],[[37.607992,55.331661],[37.606372,55.331537],[37.604509,55.331364],[37.602843,55.331163]],[[37.63786,55.332147],[37.649508,55.332321]],[[37.542905,55.332704],[37.544046,55.33237],[37.545215,55.332056]],[[37.610562,55.331662],[37.612467,55.331717],[37.617867,55.331851]],[[37.518085,55.338561],[37.518917,55.338405],[37.520424,55.338096]],[[37.528747,55.336407],[37.530724,55.335996]],[[37.510761,55.339855],[37.508687,55.340136]],[[37.523658,55.337438],[37.525322,55.337103]],[[37.508713,55.34001],[37.510692,55.339742]],[[37.562207,55.328289],[37.563811,55.327974]],[[37.563879,55.328086],[37.562275,55.3284]],[[37.510692,55.339742],[37.512307,55.339513]],[[37.608386,55.331553],[37.609822,55.33164],[37.610562,55.331662]],[[37.652155,55.332344],[37.657354,55.332374]],[[37.529625,55.336362],[37.528748,55.336541]],[[37.527884,55.336579],[37.528747,55.336407]],[[37.433729,55.36086],[37.434145,55.360551]],[[37.434319,55.360626],[37.433903,55.360935]],[[37.620092,55.332024],[37.618332,55.331996],[37.61786,55.331989]],[[37.617867,55.331851],[37.620099,55.331883]],[[37.649508,55.332321],[37.650356,55.332333],[37.652155,55.332344]],[[37.452727,55.348156],[37.452915,55.348068],[37.45307,55.347993]],[[37.508158,55.340074],[37.508713,55.34001]],[[37.494263,55.34135],[37.493872,55.341378]],[[37.493911,55.341255],[37.494301,55.341227]],[[37.61786,55.331989],[37.617821,55.331988]],[[36.984812,55.534908],[36.986742,55.536201],[36.987402,55.536643],[36.988239,55.537211],[36.989293,55.537943],[36.989631,55.538259],[36.989829,55.538506],[36.989921,55.538663],[36.990009,55.538838],[36.990074,55.53901],[36.990114,55.53918],[36.990135,55.539376],[36.990141,55.539549],[36.990114,55.539729],[36.990067,55.539938],[36.989964,55.540188],[36.989773,55.540513],[36.989667,55.540667],[36.989611,55.540747],[36.989541,55.540848],[36.98908,55.541502],[36.988898,55.541764],[36.987659,55.543546]],[[36.990017,55.554218],[36.989874,55.554493],[36.989701,55.554932],[36.989625,55.555326],[36.989615,55.555616],[36.989636,55.555847],[36.98967,55.556013],[36.989776,55.55636],[36.989942,55.556727],[36.990459,55.557442],[36.992052,55.559497],[36.993411,55.561286]],[[36.98986,55.554187],[36.990039,55.553896],[36.990273,55.553598],[36.990463,55.553356],[36.991117,55.552603],[36.99153,55.552048],[36.991852,55.551493],[36.992056,55.550843],[36.992115,55.550088],[36.992045,55.54949],[36.991868,55.54888],[36.991509,55.548203],[36.991106,55.547627],[36.990543,55.547086],[36.989899,55.546666],[36.989432,55.546416]],[[36.993241,55.561328],[36.991883,55.559541],[36.99112,55.55858],[36.990703,55.558053],[36.990269,55.557488],[36.989895,55.556956],[36.989894,55.556954],[36.989722,55.556642],[36.989612,55.556372],[36.989489,55.556012],[36.989447,55.555857]],[[37.0036,55.590421],[37.003667,55.590655],[37.00396,55.591916],[37.004136,55.592517],[37.004236,55.592723],[37.004373,55.592902],[37.004491,55.593047],[37.004726,55.59327],[37.004992,55.593458],[37.00522,55.593625],[37.005625,55.593811],[37.00651,55.59416],[37.006963,55.594346],[37.007309,55.59453],[37.007688,55.594772]],[[37.000473,55.580679],[37.000329,55.580166],[36.99951,55.577397],[36.998932,55.575399],[36.998649,55.57419],[36.998261,55.57269]],[[36.998451,55.57267],[36.998826,55.574166],[36.998945,55.574703],[36.999133,55.57538],[36.999692,55.577408],[37.000246,55.579343],[37.00047,55.580156],[37.000625,55.580669]],[[37.008315,55.59655],[37.008364,55.596315],[37.008366,55.596167],[37.008356,55.596023],[37.008329,55.595857],[37.008286,55.595709],[37.008203,55.59553],[37.008128,55.595404],[37.008012,55.595256],[37.007948,55.595166],[37.007779,55.595003],[37.007629,55.594877],[37.007417,55.594731],[37.00721,55.594606],[37.006894,55.594436],[37.006491,55.594265],[37.005735,55.593949],[37.005341,55.59379],[37.005032,55.593622],[37.004759,55.593452],[37.004472,55.593228],[37.004231,55.59297]],[[36.989536,55.546354],[36.989991,55.5466],[36.990699,55.547044],[36.991273,55.54759],[36.991675,55.548167],[36.992029,55.548853],[36.992211,55.549481],[36.992276,55.550091],[36.992211,55.550843],[36.991981,55.551511],[36.991881,55.55173]],[[36.998261,55.57269],[36.998102,55.57217],[36.996831,55.567918],[36.996744,55.567626],[36.996512,55.566847]],[[37.007688,55.594772],[37.007874,55.594931],[37.008062,55.595113],[37.008141,55.595216],[37.008172,55.595248],[37.008344,55.595506],[37.008446,55.595698],[37.008479,55.595824],[37.008511,55.596],[37.008527,55.596162],[37.008511,55.596336],[37.008484,55.596539],[37.008409,55.59673],[37.007962,55.597673],[37.007111,55.59952],[37.006878,55.600015]],[[36.996512,55.566847],[36.996173,55.565789],[36.995975,55.56515],[36.995885,55.56494],[36.995808,55.564798],[36.995725,55.564676],[36.99565,55.564566],[36.994466,55.562953]],[[36.993411,55.561286],[36.994326,55.562491],[36.994644,55.56291],[36.995156,55.563614],[36.995852,55.564528]],[[36.997028,55.567898],[36.997388,55.569094],[36.997396,55.56913],[36.997572,55.56971],[36.997721,55.570155],[36.997828,55.570569],[36.998451,55.57267]],[[36.987337,55.543818],[36.987404,55.543653],[36.987479,55.543509],[36.988199,55.542491],[36.98865,55.541825],[36.989266,55.54097],[36.989402,55.540774]],[[37.000625,55.580669],[37.000758,55.581114],[37.001969,55.585148]],[[37.001804,55.585164],[37.001143,55.583022],[37.000999,55.582557],[37.000473,55.580679]],[[37.00668,55.599989],[37.006933,55.599493],[37.007814,55.597659],[37.008245,55.59673],[37.008315,55.59655]],[[37.002155,55.58575],[37.002752,55.587791],[37.002924,55.588378],[37.002941,55.588435],[37.003243,55.589344]],[[37.003036,55.589367],[37.002845,55.588739],[37.00269,55.588198],[37.001991,55.585767]],[[36.991881,55.55173],[36.99168,55.552094],[36.991278,55.552643],[36.990623,55.553392]],[[37.004231,55.59297],[37.004101,55.592792],[37.004002,55.592588],[37.003887,55.592289],[37.00354,55.590985],[37.00345,55.590675],[37.003401,55.590514]],[[36.994466,55.562953],[36.994142,55.562522],[36.993514,55.561687],[36.993241,55.561328]],[[36.996316,55.565532],[36.997028,55.567898]],[[36.988145,55.54569],[36.987885,55.545481],[36.987692,55.545283],[36.987555,55.545118],[36.987424,55.544916],[36.987319,55.544663],[36.987268,55.544378]],[[36.987434,55.544394],[36.987482,55.544642],[36.987582,55.544884],[36.987707,55.545076],[36.987838,55.545233],[36.988022,55.545422],[36.988267,55.54562]],[[36.989432,55.546416],[36.988751,55.546055],[36.988145,55.54569]],[[36.988267,55.54562],[36.988853,55.545988],[36.989536,55.546354]],[[36.990623,55.553392],[36.99021,55.553922],[36.990017,55.554218]],[[37.003401,55.590514],[37.003036,55.589367]],[[37.003243,55.589344],[37.0036,55.590421]],[[36.989447,55.555857],[36.989419,55.555613],[36.98945,55.555315],[36.989518,55.55497],[36.989634,55.554634]],[[36.996015,55.564782],[36.996133,55.565015],[36.996251,55.565318],[36.996316,55.565532]],[[36.987659,55.543546],[36.987582,55.543678],[36.987511,55.543879],[36.987453,55.544119],[36.987434,55.544394]],[[37.001991,55.585767],[37.001804,55.585164]],[[37.001969,55.585148],[37.002155,55.58575]],[[36.989634,55.554634],[36.989725,55.554423],[36.989824,55.554247]],[[36.995852,55.564528],[36.996015,55.564782]],[[36.987268,55.544378],[36.987275,55.544108],[36.987337,55.543818]],[[36.989824,55.554247],[36.98986,55.554187]],[[37.057057,55.479557],[37.056122,55.479951],[37.055203,55.480362],[37.053976,55.480956],[37.052943,55.481511],[37.04759,55.484696],[37.046258,55.485509],[37.032733,55.493711]],[[37.003126,55.511222],[37.006406,55.509288],[37.006679,55.509127],[37.009212,55.507619],[37.010824,55.50666]],[[37.010824,55.50666],[37.014334,55.50457],[37.017358,55.502757]],[[37.017524,55.502842],[37.010999,55.506743]],[[37.010999,55.506743],[37.009384,55.507709],[37.006581,55.509385],[37.006266,55.509573]],[[37.006266,55.509573],[37.003397,55.511278]],[[37.057952,55.479051],[37.0611,55.477698]],[[37.003397,55.511278],[37.001865,55.5122],[37.001451,55.512448]],[[37.01943,55.501709],[37.019085,55.501909],[37.017524,55.502842]],[[37.00126,55.512345],[37.002495,55.511594],[37.003126,55.511222]],[[36.871582,55.715643],[36.871477,55.716034],[36.871413,55.71643],[36.871394,55.716835],[36.871426,55.717377],[36.871504,55.717823],[36.871686,55.718383],[36.871869,55.71874],[36.872156,55.719254],[36.872349,55.719535],[36.872708,55.719983],[36.873226,55.72053],[36.87362,55.720871],[36.87399,55.721167],[36.875742,55.722479],[36.876858,55.723346],[36.877499,55.723872],[36.878046,55.724387],[36.878566,55.724976],[36.879036,55.725618],[36.879382,55.726242],[36.879669,55.726885],[36.879931,55.727769],[36.880009,55.728447],[36.879988,55.729042],[36.879915,55.729524],[36.879765,55.730007],[36.879588,55.730453],[36.879111,55.731487],[36.878799,55.732026],[36.87804,55.733225],[36.877523,55.734095],[36.877225,55.734711],[36.877064,55.735183],[36.876947,55.735631]],[[36.876772,55.735625],[36.876879,55.735171],[36.87704,55.734686],[36.877359,55.734079],[36.877879,55.733189],[36.878655,55.731993],[36.878966,55.731468],[36.879449,55.730404],[36.87961,55.729975],[36.879749,55.729509],[36.879829,55.729048],[36.879862,55.728476],[36.879787,55.727827],[36.879534,55.726945],[36.879266,55.726304],[36.878899,55.725646],[36.878443,55.725014],[36.877909,55.724443],[36.87734,55.723911],[36.876729,55.72339],[36.875621,55.722544],[36.873821,55.72121],[36.873419,55.720896],[36.873076,55.720584],[36.872609,55.720086],[36.87215,55.719512],[36.871946,55.719205],[36.871689,55.718758],[36.871528,55.718397],[36.871359,55.717832],[36.871273,55.717389],[36.871238,55.717107]],[[36.887102,55.68798],[36.885803,55.689219],[36.882311,55.692454],[36.881554,55.693213],[36.880953,55.693908],[36.88053,55.694658],[36.880272,55.695438],[36.880186,55.69614],[36.880272,55.696765],[36.880487,55.697428],[36.880905,55.698198],[36.881447,55.698897],[36.881825,55.699472]],[[36.887019,55.687926],[36.887317,55.687641],[36.887583,55.687388],[36.888723,55.686425],[36.891385,55.683908],[36.894551,55.680826]],[[36.881682,55.699479],[36.881329,55.698915],[36.880794,55.698226],[36.880362,55.697429],[36.880151,55.696778],[36.880066,55.696157],[36.880154,55.695434],[36.880414,55.694646],[36.880848,55.693878],[36.881466,55.693163],[36.882186,55.69244],[36.884893,55.689932]],[[36.87678,55.706161],[36.875625,55.707207],[36.875249,55.70762],[36.8748,55.708176],[36.874559,55.7086],[36.873487,55.711038]],[[36.878008,55.739371],[36.878695,55.74017],[36.87915,55.740639],[36.881779,55.743345]],[[36.891791,55.683648],[36.891478,55.683951],[36.890503,55.684843],[36.888838,55.686477],[36.887771,55.687344]],[[36.894708,55.680821],[36.891791,55.683648]],[[36.885314,55.74689],[36.885785,55.747394],[36.886071,55.747701],[36.886532,55.748191],[36.887938,55.749685]],[[36.882231,55.744054],[36.88116,55.742945],[36.87998,55.741741]],[[36.874731,55.708171],[36.875106,55.707699],[36.875524,55.707222],[36.876696,55.706136]],[[36.873424,55.71103],[36.874487,55.708607],[36.874731,55.708171]],[[36.887648,55.749663],[36.885768,55.747679]],[[36.871338,55.715863],[36.871635,55.715007],[36.872225,55.713613],[36.872372,55.713291]],[[36.884893,55.689932],[36.885689,55.689195],[36.886557,55.688367]],[[36.879473,55.70394],[36.878524,55.704717],[36.8784,55.704818],[36.877916,55.705235]],[[36.87688,55.736382],[36.876903,55.736848],[36.876976,55.737282],[36.877024,55.737496],[36.877155,55.737898],[36.877372,55.738404],[36.87752,55.738689],[36.877643,55.738926]],[[36.876696,55.706136],[36.877019,55.705838],[36.877599,55.705321],[36.877652,55.705273],[36.878073,55.704903]],[[36.883297,55.744834],[36.883463,55.745003],[36.884502,55.746062]],[[36.881825,55.699472],[36.881978,55.699775],[36.88208,55.700062],[36.882147,55.700392],[36.882163,55.700706],[36.882116,55.701073],[36.882005,55.701391],[36.881852,55.701679],[36.881628,55.702014]],[[36.881482,55.701996],[36.881718,55.701657],[36.88186,55.701377],[36.881968,55.701068],[36.882016,55.700701],[36.882,55.70039],[36.881934,55.700065],[36.881833,55.699781],[36.881682,55.699479]],[[36.882196,55.743774],[36.882751,55.744277],[36.883297,55.744834]],[[36.88451,55.746359],[36.883495,55.745304]],[[36.880568,55.703005],[36.879473,55.70394]],[[36.877916,55.705235],[36.877795,55.705337],[36.877283,55.705751],[36.876945,55.706025]],[[36.872865,55.712255],[36.873424,55.71103]],[[36.873487,55.711038],[36.87294,55.712266]],[[36.884502,55.746062],[36.885314,55.74689]],[[36.881431,55.702231],[36.881126,55.702534],[36.880568,55.703005]],[[36.885768,55.747679],[36.88562,55.747523],[36.884977,55.746844]],[[36.872065,55.714437],[36.871807,55.715022],[36.871582,55.715643]],[[36.872526,55.713291],[36.872065,55.714437]],[[36.882911,55.744696],[36.882231,55.744054]],[[36.887771,55.687344],[36.887686,55.687423],[36.887417,55.687679],[36.887102,55.68798]],[[36.87294,55.712266],[36.872604,55.713095],[36.872526,55.713291]],[[36.883495,55.745304],[36.883249,55.745047],[36.882911,55.744696]],[[36.878073,55.704903],[36.878376,55.704655],[36.878636,55.704442]],[[36.884977,55.746844],[36.88451,55.746359]],[[36.886557,55.688367],[36.887019,55.687926]],[[36.894551,55.680826],[36.895003,55.680422]],[[36.881779,55.743345],[36.882196,55.743774]],[[36.877643,55.738926],[36.878008,55.739371]],[[36.895145,55.680454],[36.894708,55.680821]],[[36.871238,55.717107],[36.871225,55.716841],[36.871246,55.71641],[36.871338,55.715863]],[[36.876702,55.736384],[36.876726,55.735978],[36.87675,55.735775],[36.876772,55.735625]],[[36.876947,55.735631],[36.876896,55.735978],[36.87688,55.736382]],[[36.881628,55.702014],[36.881431,55.702231]],[[36.881296,55.702193],[36.881482,55.701996]],[[36.876945,55.706025],[36.87678,55.706161]],[[37.063253,56.02997],[37.068363,56.031736],[37.069712,56.032206],[37.06978,56.03223],[37.078403,56.035194],[37.08401,56.037152],[37.084098,56.037182],[37.096035,56.041327]],[[37.095888,56.041447],[37.095013,56.04115],[37.083886,56.037278],[37.069577,56.03231],[37.066552,56.03126]],[[37.106253,56.044857],[37.107934,56.045411],[37.112659,56.047002],[37.116994,56.048503],[37.124954,56.05126],[37.130223,56.053101]],[[37.163229,56.063885],[37.165594,56.064358],[37.170844,56.065548],[37.172649,56.066083],[37.174242,56.066685],[37.17638,56.067764],[37.181914,56.071236]],[[37.181737,56.071331],[37.176296,56.067881],[37.17416,56.066766],[37.17252,56.066178],[37.170666,56.065632],[37.163136,56.063975]],[[37.181975,56.071275],[37.187862,56.074978],[37.19044,56.076605],[37.192068,56.077656],[37.195202,56.079693],[37.196639,56.080521]],[[37.121431,56.050195],[37.112397,56.047068],[37.110667,56.046486],[37.106423,56.04506]],[[37.158467,56.063021],[37.154397,56.062153],[37.153383,56.061939],[37.150668,56.06135],[37.147481,56.060695]],[[37.147526,56.060586],[37.150689,56.061222],[37.153471,56.061828],[37.154443,56.062039],[37.158351,56.062876]],[[37.050617,56.025748],[37.045296,56.023904],[37.043072,56.02312]],[[37.134475,56.054714],[37.130654,56.053389],[37.129339,56.052937],[37.129005,56.052816],[37.127261,56.052212]],[[37.196303,56.080537],[37.194074,56.07922],[37.191478,56.077525]],[[37.055458,56.027432],[37.050617,56.025748]],[[37.126073,56.051801],[37.124794,56.051358],[37.121431,56.050195]],[[37.105485,56.044748],[37.101253,56.04333]],[[37.099869,56.042856],[37.095888,56.041447]],[[37.096035,56.041327],[37.09793,56.04201],[37.099993,56.042734]],[[37.063156,56.030076],[37.060098,56.029038]],[[37.130223,56.053101],[37.133261,56.054144]],[[37.159693,56.063155],[37.160592,56.063339],[37.162468,56.063724]],[[37.147481,56.060695],[37.146423,56.060403],[37.145816,56.060199],[37.145331,56.059995]],[[37.103029,56.043767],[37.105139,56.04448]],[[37.162385,56.063814],[37.15968,56.063274]],[[37.144454,56.059583],[37.143703,56.059197],[37.142917,56.058751]],[[37.1014,56.043216],[37.103029,56.043767]],[[37.057489,56.027999],[37.059042,56.028525]],[[37.145911,56.060086],[37.146527,56.060296],[37.147526,56.060586]],[[37.058893,56.028619],[37.057384,56.0281]],[[37.133261,56.054144],[37.13467,56.054641]],[[37.099993,56.042734],[37.1014,56.043216]],[[37.056086,56.027524],[37.056099,56.027528],[37.057489,56.027999]],[[37.101253,56.04333],[37.099869,56.042856]],[[37.057384,56.0281],[37.056095,56.027632]],[[37.059042,56.028525],[37.060314,56.028956]],[[37.197231,56.081116],[37.196303,56.080537]],[[37.196639,56.080521],[37.197546,56.08111]],[[37.060098,56.029038],[37.058893,56.028619]],[[37.064274,56.030462],[37.063156,56.030076]],[[37.143685,56.059006],[37.14457,56.059481]],[[37.105139,56.04448],[37.105882,56.044731],[37.105994,56.044769],[37.106253,56.044857]],[[37.158351,56.062876],[37.159693,56.063155]],[[37.145331,56.059995],[37.144454,56.059583]],[[37.053579,56.026649],[37.054555,56.026977]],[[37.15968,56.063274],[37.158467,56.063021]],[[37.054555,56.026977],[37.05536,56.027271]],[[37.05536,56.027271],[37.056086,56.027524]],[[37.056095,56.027632],[37.055458,56.027432]],[[37.163136,56.063975],[37.162385,56.063814]],[[37.105781,56.044844],[37.105485,56.044748]],[[37.181801,56.071371],[37.181737,56.071331]],[[37.254518,56.109868],[37.261422,56.112592],[37.265703,56.114273],[37.266722,56.114637],[37.268419,56.115254],[37.271322,56.116195],[37.27428,56.117066],[37.277626,56.11797],[37.280668,56.118721],[37.28092,56.118772],[37.284173,56.11943]],[[37.236962,56.102092],[37.231397,56.099555],[37.228479,56.098214],[37.223296,56.095813],[37.221264,56.094873]],[[37.224664,56.096274],[37.228622,56.098101],[37.238911,56.102847]],[[37.191478,56.077525],[37.190849,56.077106],[37.190271,56.076721],[37.187651,56.075079],[37.181801,56.071371]],[[37.042108,56.022661],[37.043032,56.022987],[37.047837,56.024636],[37.049218,56.025121],[37.053579,56.026649]],[[37.21015,56.089095],[37.210958,56.089594],[37.212741,56.090596],[37.214355,56.091434],[37.215205,56.091817],[37.216306,56.092343],[37.216909,56.092635],[37.219513,56.09382]],[[37.26486,56.11405],[37.261324,56.112676],[37.254421,56.109993]],[[37.272895,56.11678],[37.271258,56.116296],[37.268337,56.115332],[37.266609,56.114723],[37.26562,56.114345],[37.26486,56.11405]],[[37.202596,56.084495],[37.1999,56.082791],[37.199471,56.082521],[37.198347,56.08181],[37.197231,56.081116]],[[37.206002,56.086469],[37.206194,56.08659],[37.206363,56.086698],[37.208594,56.0881],[37.209482,56.088667],[37.21015,56.089095]],[[37.242329,56.104362],[37.246841,56.106448]],[[37.246536,56.106471],[37.242205,56.104448]],[[37.28059,56.118814],[37.277558,56.118074],[37.275911,56.117628]],[[37.219513,56.09382],[37.222912,56.095439]],[[37.13467,56.054641],[37.137021,56.055534],[37.138329,56.056102]],[[37.140658,56.057252],[37.143059,56.05866],[37.143685,56.059006]],[[37.060314,56.028956],[37.061498,56.029372],[37.063253,56.02997]],[[37.138329,56.056102],[37.139635,56.056677],[37.140658,56.057252]],[[37.066552,56.03126],[37.065134,56.030763],[37.064274,56.030462]],[[37.205916,56.086598],[37.205491,56.086327],[37.204523,56.085713],[37.204228,56.085522]],[[37.204228,56.085522],[37.203915,56.085324],[37.202596,56.084495]],[[37.202749,56.084396],[37.204359,56.085429]],[[37.238815,56.102936],[37.236962,56.102092]],[[37.222912,56.095439],[37.224664,56.096274]],[[37.127261,56.052212],[37.126073,56.051801]],[[37.14457,56.059481],[37.145446,56.059888]],[[37.106423,56.04506],[37.105878,56.044877],[37.105781,56.044844]],[[37.162468,56.063724],[37.163229,56.063885]],[[37.145446,56.059888],[37.145911,56.060086]],[[37.246841,56.106448],[37.247168,56.106605]],[[38.495461,55.926412],[38.497698,55.927258],[38.499184,55.927805],[38.500825,55.928322],[38.502585,55.928772],[38.504468,55.929145],[38.50642,55.929476],[38.508829,55.929662],[38.510996,55.929752],[38.513083,55.929662],[38.515315,55.929455],[38.517396,55.929139],[38.519456,55.928736],[38.521602,55.928147],[38.523581,55.927471],[38.525249,55.926789],[38.526687,55.926032],[38.528205,55.925091],[38.529305,55.924282],[38.530453,55.92329],[38.531349,55.922277],[38.532009,55.921346],[38.532679,55.920035],[38.533299,55.918108],[38.533387,55.91782],[38.533758,55.916543],[38.541265,55.890226],[38.541756,55.888778],[38.542249,55.887572],[38.543059,55.886114],[38.543754,55.885014],[38.544181,55.884383],[38.54507,55.883182],[38.546019,55.882107],[38.548472,55.879792],[38.549658,55.878531],[38.550682,55.877267],[38.551696,55.875831],[38.552645,55.87417],[38.55323,55.872969],[38.553772,55.87144],[38.553947,55.870804],[38.554153,55.870059],[38.554384,55.868738],[38.55448,55.867136],[38.554475,55.865508],[38.554312,55.864432],[38.554217,55.863804],[38.553917,55.862561],[38.553296,55.860907]],[[38.553899,55.861987],[38.554094,55.862505],[38.554409,55.863806],[38.554661,55.865473],[38.554666,55.867215],[38.554574,55.868741],[38.554342,55.870069],[38.553963,55.871445],[38.553428,55.872954],[38.55283,55.874183],[38.55187,55.875863],[38.550852,55.877305],[38.549805,55.878596],[38.548635,55.87984],[38.546204,55.88219],[38.545241,55.883246],[38.544423,55.884377],[38.543967,55.885079],[38.543203,55.886331],[38.542431,55.887722],[38.541855,55.889107],[38.541455,55.890234],[38.533938,55.916553],[38.533567,55.917828],[38.53348,55.918116],[38.532894,55.92005],[38.532196,55.921385],[38.531531,55.922317],[38.530603,55.923341],[38.52948,55.924344],[38.528369,55.925161],[38.526839,55.926109],[38.525404,55.926864],[38.523699,55.927562],[38.521731,55.928234],[38.519612,55.928816],[38.517521,55.929225],[38.515361,55.929552],[38.513135,55.929759],[38.51101,55.929851],[38.508907,55.929763],[38.506397,55.929569],[38.504419,55.929234],[38.502529,55.92886],[38.500732,55.9284],[38.499102,55.927886],[38.497629,55.927346],[38.49536,55.926493]],[[38.363165,55.962187],[38.364982,55.961169],[38.366784,55.96024],[38.368549,55.95942],[38.37025,55.958702],[38.37253,55.95785],[38.37482,55.957012],[38.380244,55.955102],[38.386536,55.952966],[38.388349,55.95242],[38.389969,55.951981],[38.391949,55.951516],[38.393928,55.95111],[38.395731,55.950798],[38.402145,55.949764],[38.407543,55.948885],[38.412898,55.948048]],[[38.412787,55.948168],[38.407589,55.948975],[38.402192,55.949854],[38.39578,55.950887],[38.393986,55.951198],[38.391871,55.951631],[38.390039,55.952062],[38.388426,55.952499],[38.38662,55.953043],[38.383338,55.954157],[38.38033,55.955178],[38.374952,55.957072],[38.372686,55.957901],[38.370327,55.958783],[38.368666,55.959484],[38.366895,55.960307],[38.365198,55.961182],[38.363207,55.96233]],[[38.435973,55.940216],[38.437005,55.939569],[38.437944,55.938914],[38.439376,55.937868],[38.454356,55.925895]],[[38.454541,55.925939],[38.439536,55.937931],[38.438135,55.938955],[38.43721,55.9396],[38.436194,55.940236]],[[38.324912,55.973398],[38.337056,55.970781],[38.349629,55.968097],[38.351764,55.967542],[38.353799,55.966907]],[[38.435003,55.940931],[38.434217,55.941349],[38.432098,55.942422],[38.42981,55.943494],[38.427878,55.944274],[38.426058,55.944953],[38.423898,55.94566],[38.42098,55.946483],[38.418697,55.947046],[38.41613,55.947618],[38.41497,55.947838]],[[38.415111,55.947696],[38.416065,55.947527],[38.418626,55.946956],[38.420901,55.946394],[38.423808,55.945574],[38.425911,55.944886],[38.427773,55.944192],[38.42972,55.943405],[38.431978,55.942348],[38.434108,55.941269],[38.434782,55.940911]],[[38.353843,55.967032],[38.351918,55.967632],[38.349753,55.968195],[38.33713,55.97089],[38.33543,55.971253]],[[38.454356,55.925895],[38.455031,55.925356],[38.456311,55.924547],[38.457384,55.923979],[38.458972,55.923227],[38.460479,55.922587],[38.461509,55.922231],[38.462543,55.921894]],[[38.462564,55.922015],[38.461579,55.922327],[38.460581,55.922673],[38.459161,55.923276],[38.457535,55.924045],[38.456489,55.924599],[38.455191,55.92542],[38.454541,55.925939]],[[38.356253,55.966014],[38.357703,55.965362],[38.359242,55.964597],[38.360948,55.963606],[38.362814,55.9624]],[[38.362848,55.962542],[38.360935,55.963772],[38.359329,55.964705],[38.357762,55.965484],[38.356322,55.966131]],[[38.33543,55.971253],[38.324957,55.973488]],[[38.486352,55.922754],[38.492831,55.925377]],[[38.492729,55.925458],[38.486252,55.922839]],[[38.474919,55.920611],[38.474003,55.920571],[38.472297,55.920565],[38.470724,55.920627],[38.469211,55.92074],[38.467468,55.920954],[38.465778,55.921229],[38.464263,55.921546],[38.462925,55.921912]],[[38.462904,55.921791],[38.464197,55.921454],[38.464208,55.921463],[38.465733,55.921144],[38.467501,55.920856],[38.46924,55.920642],[38.470774,55.920528],[38.472367,55.920465],[38.473976,55.920471],[38.47492,55.920512]],[[38.547327,55.852338],[38.549377,55.854427]],[[38.485213,55.922455],[38.484338,55.922183],[38.483346,55.92191],[38.482305,55.92164],[38.481607,55.921477]],[[38.47492,55.920512],[38.475709,55.920546],[38.477061,55.920669],[38.479083,55.920916],[38.480037,55.921062]],[[38.479966,55.921154],[38.479036,55.921012],[38.477023,55.920767],[38.475681,55.920644],[38.474919,55.920611]],[[38.492831,55.925377],[38.495461,55.926412]],[[38.49536,55.926493],[38.492729,55.925458]],[[38.356322,55.966131],[38.355454,55.966476],[38.354591,55.966787],[38.353843,55.967032]],[[38.353799,55.966907],[38.354529,55.966668],[38.355393,55.966358],[38.356253,55.966014]],[[38.546107,55.851203],[38.547327,55.852338]],[[38.553296,55.860907],[38.55264,55.859569]],[[38.436194,55.940236],[38.435003,55.940931]],[[38.412898,55.948048],[38.414056,55.947869],[38.415111,55.947696]],[[38.41497,55.947838],[38.412787,55.948168]],[[38.545305,55.850348],[38.546107,55.851203]],[[38.549934,55.855133],[38.550425,55.855761],[38.550669,55.856063]],[[38.480037,55.921062],[38.480848,55.921207],[38.481679,55.921385]],[[38.481607,55.921477],[38.480777,55.9213],[38.479966,55.921154]],[[38.549694,55.855166],[38.54902,55.854382]],[[38.550775,55.85622],[38.551372,55.857034]],[[38.485313,55.92237],[38.486352,55.922754]],[[38.486252,55.922839],[38.485213,55.922455]],[[38.54902,55.854382],[38.548576,55.853909]],[[38.551913,55.8582],[38.551583,55.857659]],[[38.551798,55.857665],[38.552132,55.858192]],[[38.363207,55.96233],[38.362848,55.962542]],[[38.362814,55.9624],[38.363165,55.962187]],[[38.462543,55.921894],[38.462904,55.921791]],[[38.462925,55.921912],[38.462564,55.922015]],[[38.550669,55.856063],[38.550775,55.85622]],[[38.324795,55.973424],[38.324912,55.973398]],[[38.324957,55.973488],[38.324842,55.973513]],[[38.56009,55.817001],[38.559086,55.817971],[38.557875,55.819067],[38.556546,55.820091],[38.555324,55.820971],[38.554151,55.82177],[38.551758,55.823327],[38.54992,55.82452],[38.548569,55.825553],[38.547468,55.82645],[38.546451,55.827357],[38.545645,55.828178],[38.544873,55.829027],[38.543597,55.83051]],[[38.543311,55.830507],[38.543953,55.829747],[38.544621,55.828982],[38.545355,55.828179],[38.546124,55.827395],[38.547162,55.826432],[38.548284,55.825478],[38.549805,55.824384],[38.551545,55.823234],[38.55345,55.822046],[38.555172,55.820924],[38.556438,55.820004],[38.557613,55.81907],[38.558981,55.817836]],[[38.562323,55.781647],[38.562954,55.783122],[38.563224,55.783753],[38.563846,55.786546],[38.564409,55.790562],[38.565906,55.801069],[38.566148,55.802944],[38.56618,55.803736],[38.566162,55.804518],[38.566128,55.804972],[38.566011,55.806106],[38.565874,55.806906],[38.565602,55.808142],[38.565388,55.808812],[38.565035,55.80979],[38.564522,55.810854]],[[38.56569,55.806697],[38.565777,55.805728],[38.56587,55.804953],[38.565923,55.804281],[38.565916,55.803297],[38.565809,55.802089],[38.564195,55.790571],[38.563632,55.786556],[38.563019,55.783803],[38.562117,55.781696]],[[38.548576,55.853909],[38.54651,55.851889],[38.545857,55.851241],[38.545076,55.850401],[38.544211,55.84943]],[[38.560259,55.816549],[38.561242,55.815471],[38.562054,55.81449],[38.562713,55.813599],[38.563628,55.812115]],[[38.562429,55.814303],[38.561792,55.815108],[38.561432,55.815531],[38.56009,55.817001]],[[38.543211,55.831101],[38.542297,55.832712],[38.541514,55.834288]],[[38.543224,55.847755],[38.543618,55.84834],[38.544433,55.849403],[38.545305,55.850348]],[[38.544211,55.84943],[38.543338,55.848297],[38.542803,55.847503],[38.542301,55.846672]],[[38.541258,55.834257],[38.541606,55.833478],[38.542005,55.832681],[38.542901,55.831089]],[[38.541995,55.845538],[38.542551,55.846636],[38.542946,55.847346],[38.543224,55.847755]],[[38.558981,55.817836],[38.559901,55.816946],[38.560259,55.816549]],[[38.551583,55.857659],[38.550532,55.856146]],[[38.563916,55.812002],[38.563486,55.812748],[38.56296,55.813546]],[[38.552686,55.859196],[38.553477,55.86087]],[[38.565121,55.808784],[38.565308,55.808188],[38.56569,55.806697]],[[38.564168,55.811112],[38.564331,55.810792],[38.564782,55.809792]],[[38.550487,55.856083],[38.549694,55.855166]],[[38.552132,55.858192],[38.552686,55.859196]],[[38.563628,55.812115],[38.56385,55.811723],[38.564168,55.811112]],[[38.552428,55.859195],[38.551913,55.8582]],[[38.553477,55.86087],[38.553899,55.861987]],[[38.56296,55.813546],[38.562429,55.814303]],[[38.549377,55.854427],[38.549934,55.855133]],[[38.564782,55.809792],[38.565121,55.808784]],[[38.564522,55.810854],[38.564123,55.811621]],[[38.551372,55.857034],[38.551798,55.857665]],[[38.542901,55.831089],[38.543311,55.830507]],[[38.543597,55.83051],[38.543211,55.831101]],[[38.540991,55.834941],[38.541258,55.834257]],[[38.562022,55.781044],[38.562323,55.781647]],[[38.562117,55.781696],[38.56182,55.781098]],[[38.541514,55.834288],[38.54126,55.834974]],[[38.55264,55.859569],[38.552428,55.859195]],[[38.564123,55.811621],[38.563916,55.812002]],[[38.550532,55.856146],[38.550487,55.856083]],[[38.390923,55.667527],[38.392711,55.668603],[38.393998,55.66935],[38.396812,55.671115],[38.398805,55.672366],[38.403815,55.675703],[38.410243,55.679944],[38.413267,55.68187],[38.426303,55.690355]],[[38.426119,55.690432],[38.42476,55.689544],[38.413032,55.681917],[38.41007,55.680033],[38.403681,55.675817],[38.398639,55.672466],[38.396687,55.671236],[38.393824,55.669441],[38.390757,55.66762]],[[38.387492,55.665761],[38.385046,55.66438],[38.38351,55.663504],[38.373844,55.657892],[38.368643,55.65485]],[[38.368832,55.65477],[38.374009,55.657798],[38.383661,55.663402],[38.385552,55.664491],[38.387659,55.665668]],[[38.426592,55.690546],[38.431399,55.693751],[38.432325,55.694374]],[[38.432139,55.694419],[38.431275,55.693833],[38.426419,55.690628]],[[38.43251,55.694491],[38.435674,55.696548],[38.436804,55.697156]],[[38.436557,55.697194],[38.435523,55.69663],[38.432326,55.694538]],[[38.390757,55.66762],[38.389134,55.666696],[38.387492,55.665761]],[[38.387659,55.665668],[38.389297,55.666601],[38.390923,55.667527]],[[38.368246,55.65441],[38.368832,55.65477]],[[38.368643,55.65485],[38.368088,55.654508]],[[38.437044,55.697425],[38.436557,55.697194]],[[38.436804,55.697156],[38.437278,55.697381]],[[38.426419,55.690628],[38.426119,55.690432]],[[38.426303,55.690355],[38.426592,55.690546]],[[38.432326,55.694538],[38.432139,55.694419]],[[38.432325,55.694374],[38.43251,55.694491]],[[38.388014,55.579985],[38.387234,55.582255],[38.385831,55.585303],[38.384117,55.589102],[38.383194,55.590903],[38.382186,55.592413],[38.381059,55.593789],[38.379761,55.595135]],[[38.368931,55.6047],[38.368484,55.605206],[38.367723,55.606287],[38.366994,55.607512],[38.366536,55.608457],[38.366427,55.608682],[38.365985,55.609755]],[[38.354546,55.475211],[38.35019,55.471828]],[[38.35046,55.471812],[38.35477,55.475172]],[[38.365985,55.609755],[38.365656,55.610763],[38.365507,55.611411],[38.36539,55.61192],[38.365223,55.613147],[38.364697,55.617521]],[[38.373999,55.599952],[38.371706,55.601899]],[[38.364453,55.624398],[38.364274,55.626161],[38.364155,55.627149],[38.364059,55.627669],[38.363802,55.628497],[38.363578,55.629192]],[[38.36843,55.604956],[38.369189,55.604098],[38.369837,55.603372],[38.370367,55.602804]],[[38.364697,55.617521],[38.364476,55.623179]],[[38.378656,55.596093],[38.377658,55.596959],[38.377467,55.597115]],[[38.361041,55.633901],[38.361417,55.633451],[38.361773,55.632883]],[[38.361908,55.633077],[38.361586,55.633574],[38.361257,55.633979]],[[38.363015,55.630197],[38.363344,55.629166]],[[38.35019,55.471828],[38.349689,55.471515]],[[38.350006,55.471498],[38.35046,55.471812]],[[38.354827,55.475453],[38.354546,55.475211]],[[38.35477,55.475172],[38.355034,55.475412]],[[38.33712,55.461876],[38.337311,55.462085]],[[38.362039,55.632844],[38.361908,55.633077]],[[37.508687,55.340136],[37.506391,55.340399],[37.505218,55.340527],[37.503986,55.340649],[37.498591,55.34105],[37.494263,55.34135]],[[37.520424,55.338096],[37.523658,55.337438]],[[37.525322,55.337103],[37.526576,55.336844],[37.527884,55.336579]],[[37.54555,55.332113],[37.544545,55.332374],[37.543573,55.332656]],[[37.453249,55.348058],[37.453098,55.348129],[37.452907,55.34822]],[[36.921881,55.7919],[36.921887,55.791167],[36.921846,55.790779],[36.921758,55.790396],[36.921625,55.789999],[36.921323,55.789279],[36.921003,55.788733],[36.92052,55.788068],[36.917846,55.784941],[36.90741,55.772737],[36.900558,55.764724],[36.896842,55.760377],[36.893401,55.756277],[36.888757,55.750874],[36.887648,55.749663]],[[36.887938,55.749685],[36.888385,55.75019],[36.888719,55.750574],[36.888939,55.750832],[36.893554,55.756245],[36.893746,55.756473],[36.89703,55.760374],[36.905308,55.770053],[36.914415,55.780673],[36.918033,55.784893],[36.920409,55.787664],[36.920822,55.78822],[36.921157,55.788686],[36.921175,55.788715],[36.921486,55.789258],[36.921803,55.789971],[36.92194,55.790385],[36.922028,55.790774],[36.922067,55.791188],[36.922056,55.791904]],[[36.878636,55.704442],[36.880424,55.702962],[36.880995,55.70248],[36.881296,55.702193]],[[36.878064,55.739714],[36.877619,55.739145],[36.877445,55.738917],[36.877169,55.73838],[36.876935,55.737828],[36.876809,55.737363],[36.876729,55.736856],[36.876702,55.736384]],[[36.87998,55.741741],[36.878513,55.740243],[36.878064,55.739714]],[[36.872372,55.713291],[36.872731,55.712515]],[[36.872731,55.712515],[36.872865,55.712255]],[[36.945215,55.907114],[36.945207,55.906983],[36.945171,55.906526],[36.945145,55.906203],[36.945105,55.905696],[36.945098,55.905604]],[[36.945909,55.916154],[36.94597,55.917245],[36.946011,55.917791]],[[36.945961,55.920222],[36.945907,55.919479],[36.945875,55.919037]],[[36.975609,55.953002],[36.976551,55.953859],[36.977701,55.954911],[36.977876,55.955071]],[[36.980058,55.957413],[36.979847,55.957204],[36.979149,55.956515],[36.979073,55.95644],[36.978629,55.956001]],[[36.977876,55.955071],[36.978453,55.955618],[36.978774,55.955922]],[[37.027828,56.010487],[37.028007,56.011297],[37.02808,56.011541],[37.028113,56.011677],[37.028591,56.013987],[37.02888,56.014674],[37.029237,56.015294],[37.029551,56.0158],[37.029914,56.016288],[37.030214,56.016657],[37.030667,56.017139],[37.031256,56.017721],[37.031988,56.018271],[37.032395,56.018591],[37.03311,56.019034],[37.034389,56.019761],[37.035553,56.020323],[37.036237,56.020599]],[[37.035413,56.020404],[37.034217,56.019819],[37.03326,56.019293],[37.03231,56.018686],[37.031632,56.018219],[37.031068,56.017756],[37.03056,56.017215],[37.030049,56.016665],[37.029773,56.016322]],[[37.036237,56.020599],[37.03823,56.021294],[37.038783,56.021487],[37.039816,56.021851],[37.042108,56.022661]],[[37.026287,56.005144],[37.025605,56.003261],[37.024705,56.000866]],[[37.043072,56.02312],[37.040688,56.022279],[37.039717,56.021937],[37.039446,56.021841],[37.038992,56.021681]],[[37.038992,56.021681],[37.035939,56.020619],[37.035413,56.020404]],[[37.026836,56.00604],[37.027115,56.006934],[37.027415,56.008097],[37.027828,56.010487]],[[37.028491,56.014186],[37.028417,56.013997],[37.027802,56.011318],[37.027709,56.010978],[37.027586,56.010396]],[[37.027586,56.010396],[37.027221,56.008127],[37.027017,56.007304],[37.026808,56.006646]],[[37.029773,56.016322],[37.029421,56.015835],[37.029061,56.015271],[37.028712,56.0147],[37.028559,56.01436],[37.028491,56.014186]],[[37.026555,56.005291],[37.026836,56.00604]],[[37.026651,56.006153],[37.026379,56.005398]],[[37.026808,56.006646],[37.026651,56.006153]],[[37.026379,56.005398],[37.026287,56.005144]],[[37.000419,55.97636],[37.001488,55.977139],[37.004695,55.979458],[37.006419,55.980707],[37.008693,55.982361],[37.010662,55.983722],[37.019813,55.99034],[37.020552,55.990941],[37.020999,55.991416],[37.021425,55.991867],[37.021959,55.992583],[37.022408,55.993386],[37.022612,55.993957],[37.024408,55.999505],[37.024912,56.000838],[37.025364,56.002208],[37.025804,56.003252],[37.026206,56.004313],[37.02636,56.004719],[37.026555,56.005291]],[[37.024705,56.000866],[37.024191,55.999534],[37.023803,55.99818],[37.022461,55.993966],[37.022254,55.993402],[37.021799,55.992632],[37.021294,55.991925],[37.020874,55.991482],[37.02041,55.990994],[37.019657,55.990371],[37.010508,55.983772],[37.008936,55.98268],[37.007188,55.981429],[37.006282,55.980765],[37.004622,55.979558],[37.000761,55.976776]],[[36.992351,55.969235],[36.992088,55.968991],[36.991275,55.968204],[36.990244,55.967198],[36.989235,55.966214],[36.984254,55.961402],[36.982309,55.959546]],[[36.992586,55.969164],[36.993528,55.970091],[36.994641,55.971175],[36.9964,55.972848],[36.996863,55.973288],[36.997493,55.973884],[36.997639,55.974029],[36.998111,55.974498],[36.998981,55.975268],[36.999602,55.975749],[37.000419,55.97636]],[[36.978774,55.955922],[36.979249,55.95638],[36.979596,55.956714],[36.983522,55.960498],[36.984395,55.961357],[36.985415,55.962364]],[[37.000761,55.976776],[36.999706,55.976015],[36.999082,55.975554],[36.998798,55.975334],[36.997919,55.974534],[36.99729,55.973951],[36.997099,55.973766],[36.996423,55.973111],[36.996226,55.972923],[36.994976,55.971734]],[[36.985415,55.962364],[36.989321,55.966103],[36.989618,55.966391]],[[36.982309,55.959546],[36.980058,55.957413]],[[36.994976,55.971734],[36.994456,55.971229],[36.993554,55.97038]],[[36.991321,55.967954],[36.991732,55.968353],[36.99223,55.968837],[36.992313,55.968916],[36.992586,55.969164]],[[36.993554,55.97038],[36.993162,55.970007],[36.992804,55.969666]],[[36.992804,55.969666],[36.992351,55.969235]]]}}